LEMUR-2-MYRA            
1 66787U 25276EC  26190.60174604  .00004214  00000+0  33740-3 0  9992
2 66787  97.5217 260.7505 0018574  71.1590 289.1646 15.00547888 33570
LEMUR-2 FIKRETDENGIZ    
1 67363U 26004A   26190.72270686  .00002433  00000+0  26761-3 0  9999
2 67363  97.8024 188.9369 0010439  71.1066 289.1282 14.88491309 26635
TWILIGHT-1 OBJECT B     
1 67364U 26004B   26189.95015328  .00001330  00000+0  15152-3 0  9990
2 67364  97.8069 188.1805 0010061  63.6748 296.5501 14.87779263 26527
LEMUR-2-MARIO-SOUSA     
1 67365U 26004C   26190.70333470  .00002486  00000+0  27192-3 0  9997
2 67365  97.7997 188.9129 0010085  72.3315 287.9002 14.88699873 26649
LEMUR-2-SONNENBLUME     
1 67367U 26004E   26189.96571181  .00001589  00000+0  17708-3 0  9993
2 67367  97.7994 188.1619 0009657  75.6747 284.5541 14.88433763 26535
LEMUR-2-WOBLER          
1 67368U 26004F   26189.95600901  .00002446  00000+0  26776-3 0  9994
2 67368  97.8049 188.2967 0009867  67.3819 292.8441 14.88670933 26539
LEMUR-2-GRAM-E-SUE      
1 67370U 26004H   26189.94770513  .00001760  00000+0  19485-3 0  9990
2 67370  97.7979 188.1606 0008821  78.1086 282.1119 14.88571655 26532
LEMUR-2-KATIE           
1 67387U 26004AA  26190.71733719  .00002879  00000+0  30258-3 0  9995
2 67387  97.8041 189.4514 0003889  45.7601 314.3936 14.90219671 26664
LEMUR-2-HCS-BAZUS       
1 67388U 26004AB  26190.71575422  .00001407  00000+0  15072-3 0  9994
2 67388  97.8032 189.4291 0003374  46.2274 313.9222 14.90243096 26669
